{"type": "FeatureCollection", "features": [ {"type": "Feature", "properties": {"norad_id": 37270, "name": "COSMOS 2251 DEB", "group": "cosmos-2251-debris", "lat": -70.4405538697656, "lon": -135.10293428410932, "alt_km": 1111.8857119006389, "timestamp": "2025-12-03T15:48:03.463523+00:00", "meta": {"OBJECT_NAME": "COSMOS 2251 DEB", "OBJECT_ID": "1993-036BHJ", "EPOCH": "2025-12-03T02:09:07.651296", "MEAN_MOTION": 13.5964515, "ECCENTRICITY": 0.03986272, "INCLINATION": 73.9369, "RA_OF_ASC_NODE": 351.6378, "ARG_OF_PERICENTER": 5.2253, "MEAN_ANOMALY": 355.2829, "EPHEMERIS_TYPE": 0, "CLASSIFICATION_TYPE": "U", "NORAD_CAT_ID": 37270, "ELEMENT_SET_NO": 999, "REV_AT_EPOCH": 76938, "BSTAR": 0.0042938576, "MEAN_MOTION_DOT": 5.363e-05, "MEAN_MOTION_DDOT": 0}, "tle": {"line1": "1 37270U 93036BHJ 25337.08967189  .00005363  00000+0  42939-2 0  9993", "line2": "2 37270  73.9369 351.6378 0398627   5.2253 355.2829 13.59645150769389"}}, "geometry": {"type": "Point", "coordinates": [-135.10293428410932, -70.4405538697656]}}, {"type": "Feature", "properties": {"norad_id": 37278, "name": "COSMOS 2251 DEB", "group": "cosmos-2251-debris", "lat": -69.36207804675927, "lon": -44.892445762411526, "alt_km": 855.0377863207705, "timestamp": "2025-12-03T15:48:03.463532+00:00", "meta": {"OBJECT_NAME": "COSMOS 2251 DEB", "OBJECT_ID": "1993-036BHS", "EPOCH": "2025-12-02T09:56:27.053664", "MEAN_MOTION": 14.15004215, "ECCENTRICITY": 0.03002048, "INCLINATION": 73.7872, "RA_OF_ASC_NODE": 7.9316, "ARG_OF_PERICENTER": 192.1474, "MEAN_ANOMALY": 231.9822, "EPHEMERIS_TYPE": 0, "CLASSIFICATION_TYPE": "U", "NORAD_CAT_ID": 37278, "ELEMENT_SET_NO": 999, "REV_AT_EPOCH": 63683, "BSTAR": 0.0013681132, "MEAN_MOTION_DOT": 4.07e-05, "MEAN_MOTION_DDOT": 0}, "tle": {"line1": "1 37278U 93036BHS 25336.41420201  .00004070  00000+0  13681-2 0  9992", "line2": "2 37278  73.7872   7.9316 0300204 192.1474 231.9822 14.15004215636832"}}, "geometry": {"type": "Point", "coordinates": [-44.892445762411526, -69.36207804675927]}}, {"type": "Feature", "properties": {"norad_id": 37280, "name": "COSMOS 2251 DEB", "group": "cosmos-2251-debris", "lat": 74.01853958208187, "lon": 162.28082580777354, "alt_km": 858.1704147339669, "timestamp": "2025-12-03T15:48:03.463541+00:00", "meta": {"OBJECT_NAME": "COSMOS 2251 DEB", "OBJECT_ID": "1993-036BHU", "EPOCH": "2025-12-02T00:27:32.804352", "MEAN_MOTION": 14.19175148, "ECCENTRICITY": 0.01319076, "INCLINATION": 74.0306, "RA_OF_ASC_NODE": 76.2311, "ARG_OF_PERICENTER": 206.963, "MEAN_ANOMALY": 152.4621, "EPHEMERIS_TYPE": 0, "CLASSIFICATION_TYPE": "U", "NORAD_CAT_ID": 37280, "ELEMENT_SET_NO": 999, "REV_AT_EPOCH": 57171, "BSTAR": 0.0022688373, "MEAN_MOTION_DOT": 5.159e-05, "MEAN_MOTION_DDOT": 0}, "tle": {"line1": "1 37280U 93036BHU 25336.01912968  .00005159  00000+0  22688-2 0  9993", "line2": "2 37280  74.0306  76.2311 0131907 206.9630 152.4621 14.19175148571712"}}, "geometry": {"type": "Point", "coordinates": [162.28082580777354, 74.01853958208187]}}, {"type": "Feature", "properties": {"norad_id": 37284, "name": "COSMOS 2251 DEB", "group": "cosmos-2251-debris", "lat": -51.60943436321669, "lon": 151.5929395791797, "alt_km": 748.3818405767461, "timestamp": "2025-12-03T15:48:03.463550+00:00", "meta": {"OBJECT_NAME": "COSMOS 2251 DEB", "OBJECT_ID": "1993-036BHY", "EPOCH": "2025-12-03T06:41:07.429344", "MEAN_MOTION": 14.12637571, "ECCENTRICITY": 0.01605013, "INCLINATION": 74.014, "RA_OF_ASC_NODE": 173.4758, "ARG_OF_PERICENTER": 327.2268, "MEAN_ANOMALY": 208.0827, "EPHEMERIS_TYPE": 0, "CLASSIFICATION_TYPE": "U", "NORAD_CAT_ID": 37284, "ELEMENT_SET_NO": 999, "REV_AT_EPOCH": 59041, "BSTAR": 0.001637191, "MEAN_MOTION_DOT": 3.402e-05, "MEAN_MOTION_DDOT": 0}, "tle": {"line1": "1 37284U 93036BHY 25337.27855821  .00003402  00000+0  16372-2 0  9992", "line2": "2 37284  74.0140 173.4758 0160501 327.2268 208.0827 14.12637571590413"}}, "geometry": {"type": "Point", "coordinates": [151.5929395791797, -51.60943436321669]}}, {"type": "Feature", "properties": {"norad_id": 37295, "name": "COSMOS 2251 DEB", "group": "cosmos-2251-debris", "lat": 62.004450878680075, "lon": -28.217581149702816, "alt_km": 652.2996502001488, "timestamp": "2025-12-03T15:48:03.463559+00:00", "meta": {"OBJECT_NAME": "COSMOS 2251 DEB", "OBJECT_ID": "1993-036BJK", "EPOCH": "2025-12-01T04:30:08.731584", "MEAN_MOTION": 14.65123594, "ECCENTRICITY": 0.00437469, "INCLINATION": 74.0068, "RA_OF_ASC_NODE": 303.8923, "ARG_OF_PERICENTER": 126.7963, "MEAN_ANOMALY": 233.7233, "EPHEMERIS_TYPE": 0, "CLASSIFICATION_TYPE": "U", "NORAD_CAT_ID": 37295, "ELEMENT_SET_NO": 999, "REV_AT_EPOCH": 82135, "BSTAR": 0.00057778641, "MEAN_MOTION_DOT": 3.118e-05, "MEAN_MOTION_DDOT": 0}, "tle": {"line1": "1 37295U 93036BJK 25335.18760106  .00003118  00000+0  57779-3 0  9994", "line2": "2 37295  74.0068 303.8923 0043746 126.7963 233.7233 14.65123594821351"}}, "geometry": {"type": "Point", "coordinates": [-28.217581149702816, 62.004450878680075]}}, {"type": "Feature", "properties": {"norad_id": 37305, "name": "COSMOS 2251 DEB", "group": "cosmos-2251-debris", "lat": 70.53040169932407, "lon": 2.310948508466185, "alt_km": 799.9029136488489, "timestamp": "2025-12-03T15:48:03.463568+00:00", "meta": {"OBJECT_NAME": "COSMOS 2251 DEB", "OBJECT_ID": "1993-036BJV", "EPOCH": "2025-12-01T04:54:57.845088", "MEAN_MOTION": 14.36058989, "ECCENTRICITY": 0.0050534, "INCLINATION": 73.8694, "RA_OF_ASC_NODE": 311.9126, "ARG_OF_PERICENTER": 273.9871, "MEAN_ANOMALY": 85.5504, "EPHEMERIS_TYPE": 0, "CLASSIFICATION_TYPE": "U", "NORAD_CAT_ID": 37305, "ELEMENT_SET_NO": 999, "REV_AT_EPOCH": 66701, "BSTAR": 0.00088749, "MEAN_MOTION_DOT": 2.593e-05, "MEAN_MOTION_DDOT": 0}, "tle": {"line1": "1 37305U 93036BJV 25335.20483617  .00002593  00000+0  88749-3 0  9995", "line2": "2 37305  73.8694 311.9126 0050534 273.9871  85.5504 14.36058989667014"}}, "geometry": {"type": "Point", "coordinates": [2.310948508466185, 70.53040169932407]}}, {"type": "Feature", "properties": {"norad_id": 37312, "name": "COSMOS 2251 DEB", "group": "cosmos-2251-debris", "lat": 23.78897860239564, "lon": 33.879588091165104, "alt_km": 750.3308338108955, "timestamp": "2025-12-03T15:48:03.463577+00:00", "meta": {"OBJECT_NAME": "COSMOS 2251 DEB", "OBJECT_ID": "1993-036BKC", "EPOCH": "2025-12-03T01:48:10.090656", "MEAN_MOTION": 14.46074055, "ECCENTRICITY": 0.00181668, "INCLINATION": 74.0321, "RA_OF_ASC_NODE": 222.2189, "ARG_OF_PERICENTER": 326.4091, "MEAN_ANOMALY": 33.5914, "EPHEMERIS_TYPE": 0, "CLASSIFICATION_TYPE": "U", "NORAD_CAT_ID": 37312, "ELEMENT_SET_NO": 999, "REV_AT_EPOCH": 86024, "BSTAR": 0.00063141036, "MEAN_MOTION_DOT": 2.231e-05, "MEAN_MOTION_DDOT": 0}, "tle": {"line1": "1 37312U 93036BKC 25337.07511679  .00002231  00000+0  63141-3 0  9998", "line2": "2 37312  74.0321 222.2189 0018166 326.4091  33.5914 14.46074055860249"}}, "geometry": {"type": "Point", "coordinates": [33.879588091165104, 23.78897860239564]}}, {"type": "Feature", "properties": {"norad_id": 37316, "name": "COSMOS 2251 DEB", "group": "cosmos-2251-debris", "lat": -40.22927633311237, "lon": -126.59182845237736, "alt_km": 598.2464548055332, "timestamp": "2025-12-03T15:48:03.463587+00:00", "meta": {"OBJECT_NAME": "COSMOS 2251 DEB", "OBJECT_ID": "1993-036BKG", "EPOCH": "2025-12-03T03:33:34.876512", "MEAN_MOTION": 14.93653646, "ECCENTRICITY": 0.00242896, "INCLINATION": 74.0165, "RA_OF_ASC_NODE": 40.4029, "ARG_OF_PERICENTER": 114.0887, "MEAN_ANOMALY": 246.2841, "EPHEMERIS_TYPE": 0, "CLASSIFICATION_TYPE": "U", "NORAD_CAT_ID": 37316, "ELEMENT_SET_NO": 999, "REV_AT_EPOCH": 86000, "BSTAR": 0.00081669727, "MEAN_MOTION_DOT": 8.654e-05, "MEAN_MOTION_DDOT": 0}, "tle": {"line1": "1 37316U 93036BKG 25337.14832033  .00008654  00000+0  81670-3 0  9992", "line2": "2 37316  74.0165  40.4029 0024289 114.0887 246.2841 14.93653646860006"}}, "geometry": {"type": "Point", "coordinates": [-126.59182845237736, -40.22927633311237]}}, {"type": "Feature", "properties": {"norad_id": 37320, "name": "COSMOS 2251 DEB", "group": "cosmos-2251-debris", "lat": 34.35398810769717, "lon": 44.72754835738717, "alt_km": 664.2409932276878, "timestamp": "2025-12-03T15:48:03.463596+00:00", "meta": {"OBJECT_NAME": "COSMOS 2251 DEB", "OBJECT_ID": "1993-036BKL", "EPOCH": "2025-12-02T00:10:39.701280", "MEAN_MOTION": 14.78545682, "ECCENTRICITY": 0.00470256, "INCLINATION": 74.0466, "RA_OF_ASC_NODE": 239.2444, "ARG_OF_PERICENTER": 328.4287, "MEAN_ANOMALY": 31.4068, "EPHEMERIS_TYPE": 0, "CLASSIFICATION_TYPE": "U", "NORAD_CAT_ID": 37320, "ELEMENT_SET_NO": 999, "REV_AT_EPOCH": 65988, "BSTAR": 0.0011433945, "MEAN_MOTION_DOT": 8.49e-05, "MEAN_MOTION_DDOT": 0}, "tle": {"line1": "1 37320U 93036BKL 25336.00740395  .00008490  00000+0  11434-2 0  9998", "line2": "2 37320  74.0466 239.2444 0047025 328.4287  31.4068 14.78545682659882"}}, "geometry": {"type": "Point", "coordinates": [44.72754835738717, 34.35398810769717]}}, {"type": "Feature", "properties": {"norad_id": 37326, "name": "COSMOS 2251 DEB", "group": "cosmos-2251-debris", "lat": -10.432523158425484, "lon": 175.10694795106548, "alt_km": 676.5075181202674, "timestamp": "2025-12-03T15:48:03.463605+00:00", "meta": {"OBJECT_NAME": "COSMOS 2251 DEB", "OBJECT_ID": "1993-036BKS", "EPOCH": "2025-11-27T19:17:38.237856", "MEAN_MOTION": 14.61468685, "ECCENTRICITY": 0.00552422, "INCLINATION": 74.0262, "RA_OF_ASC_NODE": 3.2841, "ARG_OF_PERICENTER": 136.8831, "MEAN_ANOMALY": 223.6683, "EPHEMERIS_TYPE": 0, "CLASSIFICATION_TYPE": "U", "NORAD_CAT_ID": 37326, "ELEMENT_SET_NO": 999, "REV_AT_EPOCH": 85265, "BSTAR": 0.00046910947, "MEAN_MOTION_DOT": 2.345e-05, "MEAN_MOTION_DDOT": 0}, "tle": {"line1": "1 37326U 93036BKS 25331.80391479  .00002345  00000+0  46911-3 0  9994", "line2": "2 37326  74.0262   3.2841 0055242 136.8831 223.6683 14.61468685852655"}}, "geometry": {"type": "Point", "coordinates": [175.10694795106548, -10.432523158425484]}}]}